     2.100          NAVIGATION                              RINEX VERSION / TYPE
fic2rin                                 11/12/2016 00:09:20 PGM / RUN BY / DATE
                                                            END OF HEADER
31 16 11 11 14  0  0.0  .237335450947D-03 -.216004991671D-11  .000000000000D+00
     .270000000000D+02  .178125000000D+01  .470019578202D-08  .192717264622D+01
     .301748514175D-06  .845147564542D-02  .260956585407D-05  .515358585930D+04
     .482400000000D+06 -.931322574615D-08 -.200000677748D+01  .108033418655D-06
     .969166383476D+00  .333375000000D+03 -.358679240682D+00 -.840999316712D-08
    -.201794119821D-09  .100000000000D+01  .192200000000D+04  .000000000000D+00
     .240000000000D+01  .000000000000D+00 -.135041773319D-07  .270000000000D+02
     .475206000000D+06  .400000000000D+01
32 16 11 11 14  0  0.0 -.193644315004D-03 -.168256519828D-10  .000000000000D+00
     .340000000000D+02  .103312500000D+03  .452054544172D-08 -.798153245189D+00
     .523217022419D-05  .613555195741D-03  .104885548353D-04  .515366757774D+04
     .482400000000D+06  .800937414169D-07 -.308629870676D+01  .353902578354D-07
     .959296894429D+00  .179781250000D+03 -.252831843242D+01 -.813569602725D-08
     .266439669710D-09  .100000000000D+01  .192200000000D+04  .000000000000D+00
     .240000000000D+01  .000000000000D+00  .465661287308D-09  .340000000000D+02
     .475206000000D+06  .400000000000D+01
 1 16 11 11 13 59 44.0  .401474535465D-04  .125055521494D-11  .000000000000D+00
     .300000000000D+01 -.100937500000D+02  .501699469225D-08  .271609827523D+01
    -.564381480217D-06  .598188163713D-02  .394321978092D-05  .515369048500D+04
     .482384000000D+06 -.707805156708D-07  .111479162887D+01 -.391155481339D-07
     .965357510947D+00  .306218750000D+03  .565485626335D+00 -.835070498324D-08
     .307155651409D-10  .100000000000D+01  .192200000000D+04  .000000000000D+00
     .240000000000D+01  .000000000000D+00  .512227416039D-08  .300000000000D+01
     .477036000000D+06  .400000000000D+01
 1 16 11 11 15 59 44.0  .401563011110D-04  .125055521494D-11  .000000000000D+00
     .700000000000D+01 -.143125000000D+02  .505271046567D-08 -.251691595298D+01
    -.862404704094D-06  .598250876646D-02  .404380261898D-05  .515368931389D+04
     .489584000000D+06  .149011611938D-07  .111473094703D+01 -.109896063805D-06
     .965357655776D+00  .304562500000D+03  .565489498679D+00 -.841713632180D-08
     .882179603464D-10  .100000000000D+01  .192200000000D+04  .000000000000D+00
     .240000000000D+01  .000000000000D+00  .512227416039D-08  .700000000000D+01
     .482406000000D+06  .400000000000D+01
 2 16 11 11 16  0  0.0  .526972115040D-03 -.557065504836D-11  .000000000000D+00
     .310000000000D+02 -.981250000000D+01  .541701135455D-08 -.204177310766D+01
    -.424683094025D-06  .161189469509D-01  .297278165817D-05  .515366573906D+04
     .489600000000D+06  .240281224251D-06  .106556317008D+01 -.558793544769D-08
     .944231614831D+00  .308406250000D+03 -.206888211196D+01 -.845606651483D-08
     .276440086268D-09  .100000000000D+01  .192200000000D+04  .000000000000D+00
     .240000000000D+01  .000000000000D+00 -.200234353542D-07  .310000000000D+02
     .482406000000D+06  .400000000000D+01
 3 16 11 11 16  0  0.0 -.976813025773D-04 -.204636307899D-11  .000000000000D+00
     .780000000000D+02 -.566875000000D+02  .454018911710D-08  .238058600860D+01
    -.297091901302D-05  .340593745932D-03  .121556222439D-04  .515358729553D+04
     .489600000000D+06 -.931322574615D-08  .215700115070D+01 -.223517417908D-07
     .959323588295D+00  .141562500000D+03  .856832773587D+00 -.800747640068D-08
    -.526093342471D-09  .100000000000D+01  .192200000000D+04  .000000000000D+00
     .240000000000D+01  .000000000000D+00  .186264514923D-08  .780000000000D+02
     .482406000000D+06  .400000000000D+01
 4 16 11 11 16  0  0.0  .154576264322D-04  .295585778076D-11  .000000000000D+00
     .120000000000D+02  .930312500000D+02  .443447042778D-08  .105357867892D+01
     .456534326077D-05  .836208299734D-02  .917166471481D-05  .515359338760D+04
     .489600000000D+06  .949949026108D-07 -.296694952255D+01 -.178813934326D-06
     .966499539408D+00  .202750000000D+03 -.971039933882D+00 -.808069373619D-08
     .244295890190D-09  .100000000000D+01  .192200000000D+04  .000000000000D+00
     .340000000000D+01  .630000000000D+02 -.419095158577D-08  .120000000000D+02
     .482406000000D+06  .400000000000D+01
 5 16 11 11 16  0  0.0 -.787358731031D-04  .238742359215D-11  .000000000000D+00
     .990000000000D+02 -.594062500000D+02  .493841999073D-08  .420631959044D+00
    -.291876494884D-05  .486947258469D-02  .104140490294D-04  .515363183594D+04
     .489600000000D+06 -.111758708954D-07  .214284512297D+01  .651925802231D-07
     .946328143211D+00  .169156250000D+03  .552543918621D+00 -.825605818368D-08
    -.499663670140D-09  .100000000000D+01  .192200000000D+04  .000000000000D+00
     .240000000000D+01  .000000000000D+00 -.107102096081D-07  .990000000000D+02
     .482406000000D+06  .400000000000D+01
 6 16 11 11 16  0  0.0  .271679833531D-03  .500222085975D-11  .000000000000D+00
     .190000000000D+02 -.853125000000D+01  .507021119465D-08 -.211600048990D+01
    -.389292836189D-06  .300857471302D-03  .379048287868D-05  .515355070496D+04
     .489600000000D+06  .931322574615D-08  .110633591410D+01  .335276126862D-07
     .965166611841D+00  .309250000000D+03 -.149517724132D+01 -.843070831570D-08
     .921466954226D-10  .100000000000D+01  .192200000000D+04  .000000000000D+00
     .240000000000D+01  .000000000000D+00  .419095158577D-08  .190000000000D+02
     .482406000000D+06  .400000000000D+01
 7 16 11 11 16  0  0.0  .411772169173D-03 -.329691829393D-11  .000000000000D+00
     .890000000000D+02  .743750000000D+01  .481877214977D-08  .312235632683D+01
     .260770320892D-06  .100467294687D-01  .227242708206D-05  .515361740494D+04
     .489600000000D+06 -.763684511185D-07 -.201016739453D+01 -.707805156708D-07
     .964381931841D+00  .338000000000D+03 -.261552531540D+01 -.840106422376D-08
    -.771460705864D-10  .100000000000D+01  .192200000000D+04  .000000000000D+00
     .340000000000D+01  .000000000000D+00 -.111758708954D-07  .890000000000D+02
     .482406000000D+06  .400000000000D+01
 8 16 11 11 16  0  0.0 -.386093743145D-04 -.136424205266D-11  .000000000000D+00
     .980000000000D+02  .464375000000D+02  .434625246743D-08  .388771935169D+00
     .235810875893D-05  .194924266543D-02  .109747052193D-04  .515377993584D+04
     .489600000000D+06  .242143869400D-07  .532927802239D-01 -.540167093277D-07
     .965266160490D+00  .167812500000D+03 -.998088620614D+00 -.803604901941D-08
     .605382359462D-09  .100000000000D+01  .192200000000D+04  .000000000000D+00
     .240000000000D+01  .000000000000D+00  .512227416039D-08  .980000000000D+02
     .482406000000D+06  .400000000000D+01
 9 16 11 11 16  0  0.0  .242605339736D-03  .727595761418D-11  .000000000000D+00
     .310000000000D+02  .102750000000D+03  .456054710795D-08 -.219217706566D+00
     .529177486897D-05  .690446700901D-03  .108182430267D-04  .515375667000D+04
     .489600000000D+06  .447034835815D-07 -.308857575923D+01 -.931322574615D-08
     .954746974895D+00  .165687500000D+03  .181750759348D+01 -.814033907780D-08
     .302512600864D-09  .100000000000D+01  .192200000000D+04  .000000000000D+00
     .240000000000D+01  .000000000000D+00  .139698386192D-08  .310000000000D+02
     .482406000000D+06  .400000000000D+01
10 16 11 11 16  0  0.0 -.113597605377D-03 -.170530256582D-11  .000000000000D+00
     .630000000000D+02 -.451250000000D+02  .464376486002D-08  .173110820909D+01
    -.230409204960D-05  .188871892169D-02  .111032277346D-04  .515368159866D+04
     .489600000000D+06  .596046447754D-07  .215313809315D+01  .108033418655D-06
     .959525324698D+00  .165375000000D+03 -.294059169888D+01 -.809640867649D-08
    -.476091259683D-09  .100000000000D+01  .192200000000D+04  .000000000000D+00
     .240000000000D+01  .000000000000D+00  .232830643654D-08  .630000000000D+02
     .482406000000D+06  .400000000000D+01
11 16 11 11 16  0  0.0 -.671011861414D-03 -.170530256582D-11  .000000000000D+00
     .102000000000D+03  .474062500000D+02  .642062458764D-08 -.307941932864D+01
     .230036675930D-05  .167705353815D-01  .376440584660D-05  .515367961884D+04
     .489600000000D+06  .281259417534D-06  .725867554612D+00  .558793544769D-08
     .898464311959D+00  .269875000000D+03  .159742658677D+01 -.892965767037D-08
     .458590530708D-09  .100000000000D+01  .192200000000D+04  .000000000000D+00
     .685000000000D+01  .000000000000D+00 -.121071934700D-07  .102000000000D+03
     .482406000000D+06  .400000000000D+01
12 16 11 11 16  0  0.0  .389490276575D-03  .000000000000D+00  .000000000000D+00
     .340000000000D+02 -.741250000000D+02  .354157609229D-08  .253395098448D+01
    -.387057662010D-05  .607412087265D-02  .101160258055D-04  .515363752556D+04
     .489600000000D+06 -.167638063431D-07 -.929818334414D+00 -.689178705215D-07
     .989959069277D+00  .199687500000D+03  .780284258223D+00 -.761960310134D-08
    -.246438836595D-09  .100000000000D+01  .192200000000D+04  .000000000000D+00
     .240000000000D+01  .000000000000D+00 -.125728547573D-07  .340000000000D+02
     .482406000000D+06  .400000000000D+01
13 16 11 11 16  0  0.0 -.543319620192D-04 -.204636307899D-11  .000000000000D+00
     .640000000000D+02  .990625000000D+02  .421803284086D-08 -.213951335630D+01
     .509247183800D-05  .402536813635D-02  .916607677937D-05  .515369330597D+04
     .489600000000D+06 -.558793544769D-08 -.296538108565D+01  .707805156708D-07
     .970978311384D+00  .208781250000D+03  .190621117625D+01 -.792925885689D-08
     .250010413937D-09  .100000000000D+01  .192200000000D+04  .000000000000D+00
     .240000000000D+01  .000000000000D+00 -.111758708954D-07  .640000000000D+02
     .482406000000D+06  .400000000000D+01
